{
  "norad_id": 64461,
  "name": "STARLINK-34418",
  "history": [
    {
      "epoch": "2026-03-28T21:57:30.472992Z",
      "apogee_km": 476.9492905407269,
      "perigee_km": 473.5856396292638,
      "latitude_deg": -9.104539390769764e-06,
      "longitude_deg": -156.26831561743913,
      "height_km": 474.49859112377857,
      "semi_major_axis_km": 6853.404465084995,
      "eccentricity": 0.0002454,
      "inclination_deg": 53.159,
      "raan_deg": 359.4372,
      "arg_perigee_deg": 7.3204,
      "mean_anomaly_deg": 352.7832,
      "mean_motion_rev_day": 15.30182452
    },
    {
      "epoch": "2026-03-29T01:05:36.405600Z",
      "apogee_km": 475.8974800292681,
      "perigee_km": 474.60630156224215,
      "latitude_deg": -1.7642729478510998e-05,
      "longitude_deg": 155.97110970526037,
      "height_km": 476.2098129974023,
      "semi_major_axis_km": 6853.388890795755,
      "eccentricity": 9.42e-05,
      "inclination_deg": 53.1601,
      "raan_deg": 358.8301,
      "arg_perigee_deg": 95.2785,
      "mean_anomaly_deg": 264.8323,
      "mean_motion_rev_day": 15.30187668
    },
    {
      "epoch": "2026-03-30T00:36:24.593760Z",
      "apogee_km": 475.8740007808574,
      "perigee_km": 474.711384967758,
      "latitude_deg": 9.17138867523404e-06,
      "longitude_deg": 157.7524857642699,
      "height_km": 475.9910776524037,
      "semi_major_axis_km": 6853.429692874307,
      "eccentricity": 8.482e-05,
      "inclination_deg": 53.1577,
      "raan_deg": 354.2779,
      "arg_perigee_deg": 69.8688,
      "mean_anomaly_deg": 290.2404,
      "mean_motion_rev_day": 15.30174003
    },
    {
      "epoch": "2026-03-30T20:59:06.277344Z",
      "apogee_km": 475.90515409771706,
      "perigee_km": 474.5831368747522,
      "latitude_deg": -7.950078934060572e-06,
      "longitude_deg": -152.70021241339862,
      "height_km": 475.8671143194379,
      "semi_major_axis_km": 6853.381145486234,
      "eccentricity": 9.645e-05,
      "inclination_deg": 53.1595,
      "raan_deg": 350.3358,
      "arg_perigee_deg": 65.3601,
      "mean_anomaly_deg": 294.75,
      "mean_motion_rev_day": 15.30190262
    },
    {
      "epoch": "2026-03-31T00:07:12.612576Z",
      "apogee_km": 475.8989516900574,
      "perigee_km": 474.5406163754633,
      "latitude_deg": -1.0292847043888691e-05,
      "longitude_deg": 159.53763549404434,
      "height_km": 475.9877244031861,
      "semi_major_axis_km": 6853.3567840327605,
      "eccentricity": 9.91e-05,
      "inclination_deg": 53.1599,
      "raan_deg": 349.7288,
      "arg_perigee_deg": 78.9194,
      "mean_anomaly_deg": 281.1918,
      "mean_motion_rev_day": 15.30198421
    },
    {
      "epoch": "2026-03-31T23:38:00.675456Z",
      "apogee_km": 475.784912369485,
      "perigee_km": 474.6075097238281,
      "latitude_deg": 9.962083858518862e-06,
      "longitude_deg": 161.32133095613898,
      "height_km": 476.14008753420376,
      "semi_major_axis_km": 6853.333211046656,
      "eccentricity": 8.59e-05,
      "inclination_deg": 53.1599,
      "raan_deg": 345.1784,
      "arg_perigee_deg": 94.409,
      "mean_anomaly_deg": 265.7009,
      "mean_motion_rev_day": 15.30206316
    },
    {
      "epoch": "2026-04-02T21:05:32.726400Z",
      "apogee_km": 475.64988468065985,
      "perigee_km": 474.4368717537154,
      "latitude_deg": -4.499229953174146e-05,
      "longitude_deg": -171.2276845277515,
      "height_km": 476.05058193895644,
      "semi_major_axis_km": 6853.180378217187,
      "eccentricity": 8.85e-05,
      "inclination_deg": 53.1606,
      "raan_deg": 336.3799,
      "arg_perigee_deg": 100.3054,
      "mean_anomaly_deg": 259.8046,
      "mean_motion_rev_day": 15.30257504
    },
    {
      "epoch": "2026-04-02T22:39:35.756640Z",
      "apogee_km": 475.70176494420866,
      "perigee_km": 474.49422493810016,
      "latitude_deg": 1.0246053270356674e-05,
      "longitude_deg": 164.89155538912811,
      "height_km": 476.2813707525479,
      "semi_major_axis_km": 6853.234994941155,
      "eccentricity": 8.81e-05,
      "inclination_deg": 53.1613,
      "raan_deg": 336.0761,
      "arg_perigee_deg": 118.1119,
      "mean_anomaly_deg": 241.9971,
      "mean_motion_rev_day": 15.30239211
    },
    {
      "epoch": "2026-04-03T20:36:21.293856Z",
      "apogee_km": 476.0392977375068,
      "perigee_km": 474.3903812849203,
      "latitude_deg": 5.2018679226349985e-05,
      "longitude_deg": -169.4477413927753,
      "height_km": 476.0044125793729,
      "semi_major_axis_km": 6853.351839511213,
      "eccentricity": 0.0001203,
      "inclination_deg": 53.1609,
      "raan_deg": 331.8278,
      "arg_perigee_deg": 82.4239,
      "mean_anomaly_deg": 277.6899,
      "mean_motion_rev_day": 15.30200077
    },
    {
      "epoch": "2026-04-04T01:18:31.188960Z",
      "apogee_km": 476.051045687188,
      "perigee_km": 474.4024005099591,
      "latitude_deg": -9.81445422367291e-06,
      "longitude_deg": 118.9084478540701,
      "height_km": 475.89703091715484,
      "semi_major_axis_km": 6853.363723098573,
      "eccentricity": 0.00012028,
      "inclination_deg": 53.1607,
      "raan_deg": 330.9184,
      "arg_perigee_deg": 73.943,
      "mean_anomaly_deg": 286.1703,
      "mean_motion_rev_day": 15.30196097
    },
    {
      "epoch": "2026-04-05T14:55:48.605376Z",
      "apogee_km": 476.05052107020674,
      "perigee_km": 474.4742392127737,
      "latitude_deg": 4.1104636586227245e-05,
      "longitude_deg": -94.2396449132854,
      "height_km": 476.16996228052875,
      "semi_major_axis_km": 6853.39938014149,
      "eccentricity": 0.000115,
      "inclination_deg": 53.1602,
      "raan_deg": 323.6379,
      "arg_perigee_deg": 90.6786,
      "mean_anomaly_deg": 269.4347,
      "mean_motion_rev_day": 15.30184155
    },
    {
      "epoch": "2026-04-05T19:37:58.171296Z",
      "apogee_km": 476.03142896231475,
      "perigee_km": 474.4181475973528,
      "latitude_deg": 3.6119627624573194e-05,
      "longitude_deg": -165.88303824683425,
      "height_km": 476.14499043661056,
      "semi_major_axis_km": 6853.3617882798335,
      "eccentricity": 0.0001177,
      "inclination_deg": 53.1602,
      "raan_deg": 322.7275,
      "arg_perigee_deg": 91.5618,
      "mean_anomaly_deg": 268.5518,
      "mean_motion_rev_day": 15.30196745
    },
    {
      "epoch": "2026-04-06T00:20:07.694880Z",
      "apogee_km": 475.97631532365085,
      "perigee_km": 474.42005996924036,
      "latitude_deg": 2.7880430334808628e-05,
      "longitude_deg": 122.47464286852251,
      "height_km": 476.05700705895777,
      "semi_major_axis_km": 6853.335187646445,
      "eccentricity": 0.00011354,
      "inclination_deg": 53.1601,
      "raan_deg": 321.818,
      "arg_perigee_deg": 87.0939,
      "mean_anomaly_deg": 273.0192,
      "mean_motion_rev_day": 15.30205654
    },
    {
      "epoch": "2026-04-06T23:50:54.625920Z",
      "apogee_km": 475.89123020371426,
      "perigee_km": 474.4109199794939,
      "latitude_deg": -1.8616298616810186e-05,
      "longitude_deg": 124.26201370326513,
      "height_km": 476.0031944347185,
      "semi_major_axis_km": 6853.288075091604,
      "eccentricity": 0.000108,
      "inclination_deg": 53.1597,
      "raan_deg": 317.2666,
      "arg_perigee_deg": 86.4216,
      "mean_anomaly_deg": 273.6908,
      "mean_motion_rev_day": 15.30221433
    }
  ]
}